[
    {
      "name": "أفغانستان",
      "dialCode": "+93",
      "isoCode": "AF",
      "flag": "https://cdn.kcak11.com/CountryFlags/countries/af.svg"
    },
    {
      "name": "جزر آلاند",
      "dialCode": "+358",
      "isoCode": "AX",
      "flag": "https://cdn.kcak11.com/CountryFlags/countries/ax.svg"
    },
    {
      "name": "ألبانيا",
      "dialCode": "+355",
      "isoCode": "AL",
      "flag": "https://cdn.kcak11.com/CountryFlags/countries/al.svg"
    },
    {
      "name": "الجزائر",
      "dialCode": "+213",
      "isoCode": "DZ",
      "flag": "https://cdn.kcak11.com/CountryFlags/countries/dz.svg"
    },
    {
      "name": "ساموا الأمريكية",
      "dialCode": "+1684",
      "isoCode": "AS",
      "flag": "https://cdn.kcak11.com/CountryFlags/countries/as.svg"
    },
    {
      "name": "أندورا",
      "dialCode": "+376",
      "isoCode": "AD",
      "flag": "https://cdn.kcak11.com/CountryFlags/countries/ad.svg"
    },
    {
      "name": "أنغولا",
      "dialCode": "+244",
      "isoCode": "AO",
      "flag": "https://cdn.kcak11.com/CountryFlags/countries/ao.svg"
    },
    {
      "name": "أنغيلا",
      "dialCode": "+1264",
      "isoCode": "AI",
      "flag": "https://cdn.kcak11.com/CountryFlags/countries/ai.svg"
    },
    {
      "name": "أنتاركتيكا",
      "dialCode": "+672",
      "isoCode": "AQ",
      "flag": "https://cdn.kcak11.com/CountryFlags/countries/aq.svg"
    },
    {
      "name": "أنتيغوا وبربودا",
      "dialCode": "+1268",
      "isoCode": "AG",
      "flag": "https://cdn.kcak11.com/CountryFlags/countries/ag.svg"
    },
    {
      "name": "الأرجنتين",
      "dialCode": "+54",
      "isoCode": "AR",
      "flag": "https://cdn.kcak11.com/CountryFlags/countries/ar.svg"
    },
    {
      "name": "أرمينيا",
      "dialCode": "+374",
      "isoCode": "AM",
      "flag": "https://cdn.kcak11.com/CountryFlags/countries/am.svg"
    },
    {
      "name": "أروبا",
      "dialCode": "+297",
      "isoCode": "AW",
      "flag": "https://cdn.kcak11.com/CountryFlags/countries/aw.svg"
    },
    {
      "name": "جزيرة أسنسيون",
      "dialCode": "+247",
      "isoCode": "AC",
      "flag": "https://cdn.kcak11.com/CountryFlags/countries/ac.svg"
    },
    {
      "name": "أستراليا",
      "dialCode": "+61",
      "isoCode": "AU",
      "flag": "https://cdn.kcak11.com/CountryFlags/countries/au.svg"
    },
    {
      "name": "النمسا",
      "dialCode": "+43",
      "isoCode": "AT",
      "flag": "https://cdn.kcak11.com/CountryFlags/countries/at.svg"
    },
    {
      "name": "أذربيجان",
      "dialCode": "+994",
      "isoCode": "AZ",
      "flag": "https://cdn.kcak11.com/CountryFlags/countries/az.svg"
    },
    {
      "name": "جزر البهاما",
      "dialCode": "+1242",
      "isoCode": "BS",
      "flag": "https://cdn.kcak11.com/CountryFlags/countries/bs.svg"
    },
    {
      "name": "البحرين",
      "dialCode": "+973",
      "isoCode": "BH",
      "flag": "https://cdn.kcak11.com/CountryFlags/countries/bh.svg"
    },
    {
      "name": "بنغلاديش",
      "dialCode": "+880",
      "isoCode": "BD",
      "flag": "https://cdn.kcak11.com/CountryFlags/countries/bd.svg"
    },
    {
      "name": "بربادوس",
      "dialCode": "+1246",
      "isoCode": "BB",
      "flag": "https://cdn.kcak11.com/CountryFlags/countries/bb.svg"
    },
    {
      "name": "بيلاروسيا",
      "dialCode": "+375",
      "isoCode": "BY",
      "flag": "https://cdn.kcak11.com/CountryFlags/countries/by.svg"
    },
    {
      "name": "بلجيكا",
      "dialCode": "+32",
      "isoCode": "BE",
      "flag": "https://cdn.kcak11.com/CountryFlags/countries/be.svg"
    },
    {
      "name": "بليز",
      "dialCode": "+501",
      "isoCode": "BZ",
      "flag": "https://cdn.kcak11.com/CountryFlags/countries/bz.svg"
    },
    {
      "name": "بنين",
      "dialCode": "+229",
      "isoCode": "BJ",
      "flag": "https://cdn.kcak11.com/CountryFlags/countries/bj.svg"
    },
    {
      "name": "برمودا",
      "dialCode": "+1441",
      "isoCode": "BM",
      "flag": "https://cdn.kcak11.com/CountryFlags/countries/bm.svg"
    },
    {
      "name": "بوتان",
      "dialCode": "+975",
      "isoCode": "BT",
      "flag": "https://cdn.kcak11.com/CountryFlags/countries/bt.svg"
    },
    {
      "name": "بوليفيا",
      "dialCode": "+591",
      "isoCode": "BO",
      "flag": "https://cdn.kcak11.com/CountryFlags/countries/bo.svg"
    },
    {
      "name": "البوسنة والهرسك",
      "dialCode": "+387",
      "isoCode": "BA",
      "flag": "https://cdn.kcak11.com/CountryFlags/countries/ba.svg"
    },
    {
      "name": "بوتسوانا",
      "dialCode": "+267",
      "isoCode": "BW",
      "flag": "https://cdn.kcak11.com/CountryFlags/countries/bw.svg"
    },
    {
      "name": " البرازيل ",
      "dialCode": "+55",
      "isoCode": "BR",
      "flag": "https://cdn.kcak11.com/CountryFlags/countries/br.svg"
    },
    {
      "name": "إقليم المحيط الهندي البريطاني",
      "dialCode": "+246",
      "isoCode": "IO",
      "flag": "https://cdn.kcak11.com/CountryFlags/countries/io.svg"
    },
    {
      "name": "بروناي دار السلام",
      "dialCode": "+673",
      "isoCode": "BN",
      "flag": "https://cdn.kcak11.com/CountryFlags/countries/bn.svg"
    },
    {
      "name": "بلغاريا",
      "dialCode": "+359",
      "isoCode": "BG",
      "flag": "https://cdn.kcak11.com/CountryFlags/countries/bg.svg"
    },
    {
      "name": "بوركينا فاسو",
      "dialCode": "+226",
      "isoCode": "BF",
      "flag": "https://cdn.kcak11.com/CountryFlags/countries/bf.svg"
    },
    {
      "name": "بوروندي",
      "dialCode": "+257",
      "isoCode": "BI",
      "flag": "https://cdn.kcak11.com/CountryFlags/countries/bi.svg"
    },
    {
      "name": "كمبوديا",
      "dialCode": "+855",
      "isoCode": "KH",
      "flag": "https://cdn.kcak11.com/CountryFlags/countries/kh.svg"
    },
    {
      "name": "الكاميرون",
      "dialCode": "+237",
      "isoCode": "CM",
      "flag": "https://cdn.kcak11.com/CountryFlags/countries/cm.svg"
    },
    {
      "name": "كندا",
      "dialCode": "+1",
      "isoCode": "CA",
      "flag": "https://cdn.kcak11.com/CountryFlags/countries/ca.svg"
    },
    {
      "name": "الرأس الأخضر",
      "dialCode": "+238",
      "isoCode": "CV",
      "flag": "https://cdn.kcak11.com/CountryFlags/countries/cv.svg"
    },
    {
      "name": "جزر كايمان",
      "dialCode": "+1345",
      "isoCode": "KY",
      "flag": "https://cdn.kcak11.com/CountryFlags/countries/ky.svg"
    },
    {
      "name": "جمهورية أفريقيا الوسطى",
      "dialCode": "+236",
      "isoCode": "CF",
      "flag": "https://cdn.kcak11.com/CountryFlags/countries/cf.svg"
    },
    {
      "name": "تشاد",
      "dialCode": "+235",
      "isoCode": "TD",
      "flag": "https://cdn.kcak11.com/CountryFlags/countries/td.svg"
    },
    {
      "name": "تشيلي",
      "dialCode": "+56",
      "isoCode": "CL",
      "flag": "https://cdn.kcak11.com/CountryFlags/countries/cl.svg"
    },
    {
      "name": "الصين",
      "dialCode": "+86",
      "isoCode": "CN",
      "flag": "https://cdn.kcak11.com/CountryFlags/countries/cn.svg"
    },
    {
      "name": "جزيرة الكريسماس",
      "dialCode": "+61",
      "isoCode": "CX",
      "flag": "https://cdn.kcak11.com/CountryFlags/countries/cx.svg"
    },
    {
      "name": "جزر كوكوس (كيلينغ)",
      "dialCode": "+61",
      "isoCode": "CC",
      "flag": "https://cdn.kcak11.com/CountryFlags/countries/cc.svg"
    },
    {
      "name": "كولومبيا",
      "dialCode": "+57",
      "isoCode": "CO",
      "flag": "https://cdn.kcak11.com/CountryFlags/countries/co.svg"
    },
    {
      "name": "جزر القمر",
      "dialCode": "+269",
      "isoCode": "KM",
      "flag": "https://cdn.kcak11.com/CountryFlags/countries/km.svg"
    },
    {
      "name": "الكونغو",
      "dialCode": "+242",
      "isoCode": "CG",
      "flag": "https://cdn.kcak11.com/CountryFlags/countries/cg.svg"
    },
    {
      "name": "جزر كوك",
      "dialCode": "+682",
      "isoCode": "CK",
      "flag": "https://cdn.kcak11.com/CountryFlags/countries/ck.svg"
    },
    {
      "name": "كوستاريكا",
      "dialCode": "+506",
      "isoCode": "CR",
      "flag": "https://cdn.kcak11.com/CountryFlags/countries/cr.svg"
    },
    {
      "name": "كرواتيا",
      "dialCode": "+385",
      "isoCode": "HR",
      "flag": "https://cdn.kcak11.com/CountryFlags/countries/hr.svg"
    },
    {
      "name": "كوبا",
      "dialCode": "+53",
      "isoCode": "CU",
      "flag": "https://cdn.kcak11.com/CountryFlags/countries/cu.svg"
    },
    {
      "name": "قبرص",
      "dialCode": "+357",
      "isoCode": "CY",
      "flag": "https://cdn.kcak11.com/CountryFlags/countries/cy.svg"
    },
    {
      "name": "جمهورية التشيك",
      "dialCode": "+420",
      "isoCode": "تشيكوسلوفاكيا",
      "flag": "https://cdn.kcak11.com/CountryFlags/countries/cz.svg"
    },
    {
      "name": "جمهورية الكونغو الديمقراطية",
      "dialCode": "+243",
      "isoCode": "CD",
      "flag": "https://cdn.kcak11.com/CountryFlags/countries/cd.svg"
    },
    {
      "name": "الدنمارك",
      "dialCode": "+45",
      "isoCode": "DK",
      "flag": "https://cdn.kcak11.com/CountryFlags/countries/dk.svg"
    },
    {
      "name": "جيبوتي",
      "dialCode": "+253",
      "isoCode": "DJ",
      "flag": "https://cdn.kcak11.com/CountryFlags/countries/dj.svg"
    },
    {
      "name": "دومينيكا",
      "dialCode": "+1767",
      "isoCode": "DM",
      "flag": "https://cdn.kcak11.com/CountryFlags/countries/dm.svg"
    },
    {
      "name": "جمهورية الدومينيكان",
      "dialCode": "+1849",
      "isoCode": "DO",
      "flag": "https://cdn.kcak11.com/CountryFlags/countries/do.svg"
    },
    {
      "name": "الإكوادور",
      "dialCode": "+593",
      "isoCode": "EC",
      "flag": "https://cdn.kcak11.com/CountryFlags/countries/ec.svg"
    },
    {
      "name": "مصر",
      "dialCode": "+20",
      "isoCode": "EG",
      "flag": "https://cdn.kcak11.com/CountryFlags/countries/eg.svg"
    },
    {
      "name": "السلفادور",
      "dialCode": "+503",
      "isoCode": "SV",
      "flag": "https://cdn.kcak11.com/CountryFlags/countries/sv.svg"
    },
    {
      "name": "غينيا الاستوائية",
      "dialCode": "+240",
      "isoCode": "GQ",
      "flag": "https://cdn.kcak11.com/CountryFlags/countries/gq.svg"
    },
    {
      "name": "إريتريا",
      "dialCode": "+291",
      "isoCode": "ER",
      "flag": "https://cdn.kcak11.com/CountryFlags/countries/er.svg"
    },
    {
      "name": "إستونيا",
      "dialCode": "+372",
      "isoCode": "EE",
      "flag": "https://cdn.kcak11.com/CountryFlags/countries/ee.svg"
    },
    {
      "name": "إيسواتيني",
      "dialCode": "+268",
      "isoCode": "SZ",
      "flag": "https://cdn.kcak11.com/CountryFlags/countries/sz.svg"
    },
    {
      "name": "إثيوبيا",
      "dialCode": "+251",
      "isoCode": "ET",
      "flag": "https://cdn.kcak11.com/CountryFlags/countries/et.svg"
    },
    {
      "name": "جزر فوكلاند (مالفيناس)",
      "dialCode": "+500",
      "isoCode": "FK",
      "flag": "https://cdn.kcak11.com/CountryFlags/countries/fk.svg"
    },
    {
      "name": "جزر فارو",
      "dialCode": "+298",
      "isoCode": "FO",
      "flag": "https://cdn.kcak11.com/CountryFlags/countries/fo.svg"
    },
    {
      "name": "فيجي",
      "dialCode": "+679",
      "isoCode": "FJ",
      "flag": "https://cdn.kcak11.com/CountryFlags/countries/fj.svg"
    },
    {
      "name": "فنلندا",
      "dialCode": "+358",
      "isoCode": "FI",
      "flag": "https://cdn.kcak11.com/CountryFlags/countries/fi.svg"
    },
    {
      "name": "فرنسا",
      "dialCode": "+33",
      "isoCode": "FR",
      "flag": "https://cdn.kcak11.com/CountryFlags/countries/fr.svg"
    },
    {
      "name": "غيانا الفرنسية",
      "dialCode": "+594",
      "isoCode": "GF",
      "flag": "https://cdn.kcak11.com/CountryFlags/countries/gf.svg"
    },
    {
      "name": "بولينيزيا الفرنسية",
      "dialCode": "+689",
      "isoCode": "PF",
      "flag": "https://cdn.kcak11.com/CountryFlags/countries/pf.svg"
    },
    {
      "name": "الجابون",
      "dialCode": "+241",
      "isoCode": "GA",
      "flag": "https://cdn.kcak11.com/CountryFlags/countries/ga.svg"
    },
    {
      "name": "غامبيا",
      "dialCode": "+220",
      "isoCode": "GM",
      "flag": "https://cdn.kcak11.com/CountryFlags/countries/gm.svg"
    },
    {
      "name": "جورجيا",
      "dialCode": "+995",
      "isoCode": "GE",
      "flag": "https://cdn.kcak11.com/CountryFlags/countries/ge.svg"
    },
    {
      "name": "ألمانيا",
      "dialCode": "+49",
      "isoCode": "DE",
      "flag": "https://cdn.kcak11.com/CountryFlags/countries/de.svg"
    },
    {
      "name": "غانا",
      "dialCode": "+233",
      "isoCode": "GH",
      "flag": "https://cdn.kcak11.com/CountryFlags/countries/gh.svg"
    },
    {
      "name": "جبل طارق",
      "dialCode": "+350",
      "isoCode": "GI",
      "flag": "https://cdn.kcak11.com/CountryFlags/countries/gi.svg"
    },
    {
      "name": "اليونان",
      "dialCode": "+30",
      "isoCode": "GR",
      "flag": "https://cdn.kcak11.com/CountryFlags/countries/gr.svg"
    },
    {
      "name": "جرينلاند",
      "dialCode": "+299",
      "isoCode": "GL",
      "flag": "https://cdn.kcak11.com/CountryFlags/countries/gl.svg"
    },
    {
      "name": "غرينادا",
      "dialCode": "+1473",
      "isoCode": "GD",
      "flag": "https://cdn.kcak11.com/CountryFlags/countries/gd.svg"
    },
    {
      "name": "جوادلوب",
      "dialCode": "+590",
      "isoCode": "GP",
      "flag": "https://cdn.kcak11.com/CountryFlags/countries/gp.svg"
    },
    {
      "name": "غوام",
      "dialCode": "+1671",
      "isoCode": "GU",
      "flag": "https://cdn.kcak11.com/CountryFlags/countries/gu.svg"
    },
    {
      "name": "غواتيمالا",
      "dialCode": "+502",
      "isoCode": "GT",
      "flag": "https://cdn.kcak11.com/CountryFlags/countries/gt.svg"
    },
    {
      "name": "غيرنسي",
      "dialCode": "+ 44-1481",
      "isoCode": "GG",
      "flag": "https://cdn.kcak11.com/CountryFlags/countries/gg.svg"
    },
    {
      "name": "غينيا",
      "dialCode": "+224",
      "isoCode": "GN",
      "flag": "https://cdn.kcak11.com/CountryFlags/countries/gn.svg"
    },
    {
      "name": "غينيا بيساو",
      "dialCode": "+245",
      "isoCode": "GW",
      "flag": "https://cdn.kcak11.com/CountryFlags/countries/gw.svg"
    },
    {
      "name": "غيانا",
      "dialCode": "+592",
      "isoCode": "GY",
      "flag": "https://cdn.kcak11.com/CountryFlags/countries/gy.svg"
    },
    {
      "name": "هايتي",
      "dialCode": "+509",
      "isoCode": "HT",
      "flag": "https://cdn.kcak11.com/CountryFlags/countries/ht.svg"
    },
    {
      "name": "الكرسي الرسولي (دولة الفاتيكان)",
      "dialCode": "+379",
      "isoCode": "VA",
      "flag": "https://cdn.kcak11.com/CountryFlags/countries/va.svg"
    },
    {
      "name": "هندوراس",
      "dialCode": "+504",
      "isoCode": "HN",
      "flag": "https://cdn.kcak11.com/CountryFlags/countries/hn.svg"
    },
    {
      "name": "هونغ كونغ",
      "dialCode": "+852",
      "isoCode": "HK",
      "flag": "https://cdn.kcak11.com/CountryFlags/countries/hk.svg"
    },
    {
      "name": "المجر",
      "dialCode": "+36",
      "isoCode": "HU",
      "flag": "https://cdn.kcak11.com/CountryFlags/countries/hu.svg"
    },
    {
      "name": "أيسلندا",
      "dialCode": "+354",
      "isoCode": "IS",
      "flag": "https://cdn.kcak11.com/CountryFlags/countries/is.svg"
    },
    {
      "name": "الهند",
      "dialCode": "+91",
      "isoCode": "IN",
      "flag": "https://cdn.kcak11.com/CountryFlags/countries/in.svg"
    },
    {
      "name": "إندونيسيا",
      "dialCode": "+62",
      "isoCode": "ID",
      "flag": "https://cdn.kcak11.com/CountryFlags/countries/id.svg"
    },
    {
      "name": "إيران",
      "dialCode": "+98",
      "isoCode": "IR",
      "flag": "https://cdn.kcak11.com/CountryFlags/countries/ir.svg"
    },
    {
      "name": "العراق",
      "dialCode": "+964",
      "isoCode": "IQ",
      "flag": "https://cdn.kcak11.com/CountryFlags/countries/iq.svg"
    },
    {
      "name": "أيرلندا",
      "dialCode": "+353",
      "isoCode": "IE",
      "flag": "https://cdn.kcak11.com/CountryFlags/countries/ie.svg"
    },
    {
      "name": "جزيرة مان",
      "dialCode": "+ 44-1624",
      "isoCode": "IM",
      "flag": "https://cdn.kcak11.com/CountryFlags/countries/im.svg"
    },
    {
      "name": "إسرائيل",
      "dialCode": "+972",
      "isoCode": "IL",
      "flag": "https://cdn.kcak11.com/CountryFlags/countries/il.svg"
    },
    {
      "name": "إيطاليا",
      "dialCode": "+39",
      "isoCode": "IT",
      "flag": "https://cdn.kcak11.com/CountryFlags/countries/it.svg"
    },
    {
      "name": "ساحل العاج / كوت ديفوار",
      "dialCode": "+225",
      "isoCode": "CI",
      "flag": "https://cdn.kcak11.com/CountryFlags/countries/ci.svg"
    },
    {
      "name": "جامايكا",
      "dialCode": "+1876",
      "isoCode": "JM",
      "flag": "https://cdn.kcak11.com/CountryFlags/countries/jm.svg"
    },
    {
      "name": "اليابان",
      "dialCode": "+81",
      "isoCode": "JP",
      "flag": "https://cdn.kcak11.com/CountryFlags/countries/jp.svg"
    },
    {
      "name": "جيرسي",
      "dialCode": "+ 44-1534",
      "isoCode": "JE",
      "flag": "https://cdn.kcak11.com/CountryFlags/countries/je.svg"
    },
    {
      "name": "الأردن",
      "dialCode": "+962",
      "isoCode": "JO",
      "flag": "https://cdn.kcak11.com/CountryFlags/countries/jo.svg"
    },
    {
      "name": "كازاخستان",
      "dialCode": "+77",
      "isoCode": "KZ",
      "flag": "https://cdn.kcak11.com/CountryFlags/countries/kz.svg"
    },
    {
      "name": "كينيا",
      "dialCode": "+254",
      "isoCode": "KE",
      "flag": "https://cdn.kcak11.com/CountryFlags/countries/ke.svg"
    },
    {
      "name": "كيريباتي",
      "dialCode": "+686",
      "isoCode": "KI",
      "flag": "https://cdn.kcak11.com/CountryFlags/countries/ki.svg"
    },
    {
      "name": "جمهورية كوريا الشعبية الديمقراطية",
      "dialCode": "+850",
      "isoCode": "KP",
      "flag": "https://cdn.kcak11.com/CountryFlags/countries/kp.svg"
    },
    {
      "name": "جمهورية كوريا الجنوبية",
      "dialCode": "+82",
      "isoCode": "KR",
      "flag": "https://cdn.kcak11.com/CountryFlags/countries/kr.svg"
    },
    {
      "name": "كوسوفو",
      "dialCode": "+383",
      "isoCode": "XK",
      "flag": "https://cdn.kcak11.com/CountryFlags/countries/xk.svg"
    },
    {
      "name": "الكويت",
      "dialCode": "+965",
      "isoCode": "KW",
      "flag": "https://cdn.kcak11.com/CountryFlags/countries/kw.svg"
    },
    {
      "name": "قيرغيزستان",
      "dialCode": "+996",
      "isoCode": "KG",
      "flag": "https://cdn.kcak11.com/CountryFlags/countries/kg.svg"
    },
    {
      "name": "لاوس",
      "dialCode": "+856",
      "isoCode": "LA",
      "flag": "https://cdn.kcak11.com/CountryFlags/countries/la.svg"
    },
    {
      "name": "لاتفيا",
      "dialCode": "+371",
      "isoCode": "LV",
      "flag": "https://cdn.kcak11.com/CountryFlags/countries/lv.svg"
    },
    {
      "name": "لبنان",
      "dialCode": "+961",
      "isoCode": "LB",
      "flag": "https://cdn.kcak11.com/CountryFlags/countries/lb.svg"
    },
    {
      "name": "ليسوتو",
      "dialCode": "+266",
      "isoCode": "LS",
      "flag": "https://cdn.kcak11.com/CountryFlags/countries/ls.svg"
    },
    {
      "name": "ليبيريا",
      "dialCode": "+231",
      "isoCode": "LR",
      "flag": "https://cdn.kcak11.com/CountryFlags/countries/lr.svg"
    },
    {
      "name": "ليبيا",
      "dialCode": "+218",
      "isoCode": "LY",
      "flag": "https://cdn.kcak11.com/CountryFlags/countries/ly.svg"
    },
    {
      "name": "ليختنشتاين",
      "dialCode": "+423",
      "isoCode": "LI",
      "flag": "https://cdn.kcak11.com/CountryFlags/countries/li.svg"
    },
    {
      "name": "ليتوانيا",
      "dialCode": "+370",
      "isoCode": "LT",
      "flag": "https://cdn.kcak11.com/CountryFlags/countries/lt.svg"
    },
    {
      "name": "لوكسمبورغ",
      "dialCode": "+352",
      "isoCode": "LU",
      "flag": "https://cdn.kcak11.com/CountryFlags/countries/lu.svg"
    },
    {
      "name": "ماكاو",
      "dialCode": "+853",
      "isoCode": "MO",
      "flag": "https://cdn.kcak11.com/CountryFlags/countries/mo.svg"
    },
    {
      "name": "مدغشقر",
      "dialCode": "+261",
      "isoCode": "MG",
      "flag": "https://cdn.kcak11.com/CountryFlags/countries/mg.svg"
    },
    {
      "name": "ملاوي",
      "dialCode": "+265",
      "isoCode": "MW",
      "flag": "https://cdn.kcak11.com/CountryFlags/countries/mw.svg"
    },
    {
      "name": "ماليزيا",
      "dialCode": "+60",
      "isoCode": "MY",
      "flag": "https://cdn.kcak11.com/CountryFlags/countries/my.svg"
    },
    {
      "name": "جزر المالديف",
      "dialCode": "+960",
      "isoCode": "MV",
      "flag": "https://cdn.kcak11.com/CountryFlags/countries/mv.svg"
    },
    {
      "name": "مالي",
      "dialCode": "+223",
      "isoCode": "ML",
      "flag": "https://cdn.kcak11.com/CountryFlags/countries/ml.svg"
    },
    {
      "name": "مالطا",
      "dialCode": "+356",
      "isoCode": "MT",
      "flag": "https://cdn.kcak11.com/CountryFlags/countries/mt.svg"
    },
    {
      "name": "جزر مارشال",
      "dialCode": "+692",
      "isoCode": "MH",
      "flag": "https://cdn.kcak11.com/CountryFlags/countries/mh.svg"
    },
    {
      "name": "مارتينيك",
      "dialCode": "+596",
      "isoCode": "MQ",
      "flag": "https://cdn.kcak11.com/CountryFlags/countries/mq.svg"
    },
    {
      "name": "موريتانيا",
      "dialCode": "+222",
      "isoCode": "MR",
      "flag": "https://cdn.kcak11.com/CountryFlags/countries/mr.svg"
    },
    {
      "name": "موريشيوس",
      "dialCode": "+230",
      "isoCode": "MU",
      "flag": "https://cdn.kcak11.com/CountryFlags/countries/mu.svg"
    },
    {
      "name": "مايوت",
      "dialCode": "+262",
      "isoCode": "YT",
      "flag": "https://cdn.kcak11.com/CountryFlags/countries/yt.svg"
    },
    {
      "name": "المكسيك",
      "dialCode": "+52",
      "isoCode": "MX",
      "flag": "https://cdn.kcak11.com/CountryFlags/countries/mx.svg"
    },
    {
      "name": "ولايات ميكرونيزيا الموحدة",
      "dialCode": "+691",
      "isoCode": "FM",
      "flag": "https://cdn.kcak11.com/CountryFlags/countries/fm.svg"
    },
    {
      "name": "مولدوفا",
      "dialCode": "+373",
      "isoCode": "MD",
      "flag": "https://cdn.kcak11.com/CountryFlags/countries/md.svg"
    },
    {
      "name": "موناكو",
      "dialCode": "+377",
      "isoCode": "MC",
      "flag": "https://cdn.kcak11.com/CountryFlags/countries/mc.svg"
    },
    {
      "name": "منغوليا",
      "dialCode": "+976",
      "isoCode": "MN",
      "flag": "https://cdn.kcak11.com/CountryFlags/countries/mn.svg"
    },
    {
      "name": "الجبل الأسود",
      "dialCode": "+382",
      "isoCode": "ME",
      "flag": "https://cdn.kcak11.com/CountryFlags/countries/me.svg"
    },
    {
      "name": "مونتسيرات",
      "dialCode": "+1664",
      "isoCode": "MS",
      "flag": "https://cdn.kcak11.com/CountryFlags/countries/ms.svg"
    },
    {
      "name": "المغرب",
      "dialCode": "+212",
      "isoCode": "MA",
      "flag": "https://cdn.kcak11.com/CountryFlags/countries/ma.svg"
    },
    {
      "name": "موزمبيق",
      "dialCode": "+258",
      "isoCode": "MZ",
      "flag": "https://cdn.kcak11.com/CountryFlags/countries/mz.svg"
    },
    {
      "name": "ميانمار",
      "dialCode": "+95",
      "isoCode": "MM",
      "flag": "https://cdn.kcak11.com/CountryFlags/countries/mm.svg"
    },
    {
      "name": "ناميبيا",
      "dialCode": "+264",
      "isoCode": "NA",
      "flag": "https://cdn.kcak11.com/CountryFlags/countries/na.svg"
    },
    {
      "name": "ناورو",
      "dialCode": "+674",
      "isoCode": "NR",
      "flag": "https://cdn.kcak11.com/CountryFlags/countries/nr.svg"
    },
    {
      "name": "نيبال",
      "dialCode": "+977",
      "isoCode": "NP",
      "flag": "https://cdn.kcak11.com/CountryFlags/countries/np.svg"
    },
    {
      "name": "هولندا",
      "dialCode": "+31",
      "isoCode": "NL",
      "flag": "https://cdn.kcak11.com/CountryFlags/countries/nl.svg"
    },
    {
      "name": "جزر الأنتيل الهولندية",
      "dialCode": "+599",
      "isoCode": "AN",
      "flag": "https://cdn.kcak11.com/CountryFlags/countries/an.svg"
    },
    {
      "name": "كاليدونيا الجديدة",
      "dialCode": "+687",
      "isoCode": "NC",
      "flag": "https://cdn.kcak11.com/CountryFlags/countries/nc.svg"
    },
    {
      "name": "نيوزيلندا",
      "dialCode": "+64",
      "isoCode": "NZ",
      "flag": "https://cdn.kcak11.com/CountryFlags/countries/nz.svg"
    },
    {
      "name": "نيكاراغوا",
      "dialCode": "+505",
      "isoCode": "NI",
      "flag": "https://cdn.kcak11.com/CountryFlags/countries/ni.svg"
    },
    {
      "name": "النيجر",
      "dialCode": "+227",
      "isoCode": "NE",
      "flag": "https://cdn.kcak11.com/CountryFlags/countries/ne.svg"
    },
    {
      "name": "نيجيريا",
      "dialCode": "+234",
      "isoCode": "NG",
      "flag": "https://cdn.kcak11.com/CountryFlags/countries/ng.svg"
    },
    {
      "name": "نيوي",
      "dialCode": "+683",
      "isoCode": "NU",
      "flag": "https://cdn.kcak11.com/CountryFlags/countries/nu.svg"
    },
    {
      "name": "جزيرة نورفولك",
      "dialCode": "+672",
      "isoCode": "NF",
      "flag": "https://cdn.kcak11.com/CountryFlags/countries/nf.svg"
    },
    {
      "name": "مقدونيا الشمالية",
      "dialCode": "+389",
      "isoCode": "MK",
      "flag": "https://cdn.kcak11.com/CountryFlags/countries/mk.svg"
    },
    {
      "name": "جزر ماريانا الشمالية",
      "dialCode": "+1670",
      "isoCode": "MP",
      "flag": "https://cdn.kcak11.com/CountryFlags/countries/mp.svg"
    },
    {
      "name": "النرويج",
      "dialCode": "+47",
      "isoCode": "NO",
      "flag": "https://cdn.kcak11.com/CountryFlags/countries/no.svg"
    },
    {
      "name": "عمان",
      "dialCode": "+968",
      "isoCode": "OM",
      "flag": "https://cdn.kcak11.com/CountryFlags/countries/om.svg"
    },
    {
      "name": "باكستان",
      "dialCode": "+92",
      "isoCode": "PK",
      "flag": "https://cdn.kcak11.com/CountryFlags/countries/pk.svg"
    },
    {
      "name": "بالاو",
      "dialCode": "+680",
      "isoCode": "PW",
      "flag": "https://cdn.kcak11.com/CountryFlags/countries/pw.svg"
    },
    {
      "name": "فلسطين",
      "dialCode": "+970",
      "isoCode": "PS",
      "flag": "https://cdn.kcak11.com/CountryFlags/countries/ps.svg"
    },
    {
      "name": "بنما",
      "dialCode": "+507",
      "isoCode": "PA",
      "flag": "https://cdn.kcak11.com/CountryFlags/countries/pa.svg"
    },
    {
      "name": "بابوا غينيا الجديدة",
      "dialCode": "+675",
      "isoCode": "PG",
      "flag": "https://cdn.kcak11.com/CountryFlags/countries/pg.svg"
    },
    {
      "name": "باراغواي",
      "dialCode": "+595",
      "isoCode": "PY",
      "flag": "https://cdn.kcak11.com/CountryFlags/countries/py.svg"
    },
    {
      "name": "بيرو",
      "dialCode": "+51",
      "isoCode": "PE",
      "flag": "https://cdn.kcak11.com/CountryFlags/countries/pe.svg"
    },
    {
      "name": "الفلبين",
      "dialCode": "+63",
      "isoCode": "PH",
      "flag": "https://cdn.kcak11.com/CountryFlags/countries/ph.svg"
    },
    {
      "name": "بيتكيرن",
      "dialCode": "+872",
      "isoCode": "PN",
      "flag": "https://cdn.kcak11.com/CountryFlags/countries/pn.svg"
    },
    {
      "name": "بولندا",
      "dialCode": "+48",
      "isoCode": "PL",
      "flag": "https://cdn.kcak11.com/CountryFlags/countries/pl.svg"
    },
    {
      "name": "البرتغال",
      "dialCode": "+351",
      "isoCode": "PT",
      "flag": "https://cdn.kcak11.com/CountryFlags/countries/pt.svg"
    },
    {
      "name": "بورتوريكو",
      "dialCode": "+1939",
      "isoCode": "PR",
      "flag": "https://cdn.kcak11.com/CountryFlags/countries/pr.svg"
    },
    {
      "name": "قطر",
      "dialCode": "+974",
      "isoCode": "QA",
      "flag": "https://cdn.kcak11.com/CountryFlags/countries/qa.svg"
    },
    {
      "name": "ريونيون",
      "dialCode": "+262",
      "isoCode": "RE",
      "flag": "https://cdn.kcak11.com/CountryFlags/countries/re.svg"
    },
    {
      "name": " رومانيا ",
      "dialCode": "+40",
      "isoCode": "RO",
      "flag": "https://cdn.kcak11.com/CountryFlags/countries/ro.svg"
    },
    {
      "name": "روسيا",
      "dialCode": "+7",
      "isoCode": "RU",
      "flag": "https://cdn.kcak11.com/CountryFlags/countries/ru.svg"
    },
    {
      "name": "رواندا",
      "dialCode": "+250",
      "isoCode": "RW",
      "flag": "https://cdn.kcak11.com/CountryFlags/countries/rw.svg"
    },
    {
      "name": "سانت بارتيليمي",
      "dialCode": "+590",
      "isoCode": "BL",
      "flag": "https://cdn.kcak11.com/CountryFlags/countries/bl.svg"
    },
    {
      "name": "سانت هيلانة وأسنسيون وتريستان دا كونا",
      "dialCode": "+290",
      "isoCode": "SH",
      "flag": "https://cdn.kcak11.com/CountryFlags/countries/sh.svg"
    },
    {
      "name": "سانت كيتس ونيفيس",
      "dialCode": "+1869",
      "isoCode": "KN",
      "flag": "https://cdn.kcak11.com/CountryFlags/countries/kn.svg"
    },
    {
      "name": "سانت لوسيا",
      "dialCode": "+1758",
      "isoCode": "LC",
      "flag": "https://cdn.kcak11.com/CountryFlags/countries/lc.svg"
    },
    {
      "name": "سانت مارتن",
      "dialCode": "+590",
      "isoCode": "MF",
      "flag": "https://cdn.kcak11.com/CountryFlags/countries/mf.svg"
    },
    {
      "name": "سان بيير وميكلون",
      "dialCode": "+508",
      "isoCode": "PM",
      "flag": "https://cdn.kcak11.com/CountryFlags/countries/pm.svg"
    },
    {
      "name": "سانت فنسنت وجزر غرينادين",
      "dialCode": "+1784",
      "isoCode": "VC",
      "flag": "https://cdn.kcak11.com/CountryFlags/countries/vc.svg"
    },
    {
      "name": "ساموا",
      "dialCode": "+685",
      "isoCode": "WS",
      "flag": "https://cdn.kcak11.com/CountryFlags/countries/ws.svg"
    },
    {
      "name": "سان مارينو",
      "dialCode": "+378",
      "isoCode": "SM",
      "flag": "https://cdn.kcak11.com/CountryFlags/countries/sm.svg"
    },
    {
      "name": "ساو تومي وبرينسيبي",
      "dialCode": "+239",
      "isoCode": "ST",
      "flag": "https://cdn.kcak11.com/CountryFlags/countries/st.svg"
    },
    {
      "name": "المملكة العربية السعودية",
      "dialCode": "+966",
      "isoCode": "SA",
      "flag": "https://cdn.kcak11.com/CountryFlags/countries/sa.svg"
    },
    {
      "name": "السنغال",
      "dialCode": "+221",
      "isoCode": "SN",
      "flag": "https://cdn.kcak11.com/CountryFlags/countries/sn.svg"
    },
    {
      "name": "صربيا",
      "dialCode": "+381",
      "isoCode": "RS",
      "flag": "https://cdn.kcak11.com/CountryFlags/countries/rs.svg"
    },
    {
      "name": "سيشيل",
      "dialCode": "+248",
      "isoCode": "SC",
      "flag": "https://cdn.kcak11.com/CountryFlags/countries/sc.svg"
    },
    {
      "name": "سيراليون",
      "dialCode": "+232",
      "isoCode": "SL",
      "flag": "https://cdn.kcak11.com/CountryFlags/countries/sl.svg"
    },
    {
      "name": "سنغافورة",
      "dialCode": "+65",
      "isoCode": "SG",
      "flag": "https://cdn.kcak11.com/CountryFlags/countries/sg.svg"
    },
    {
      "name": "سينت مارتن",
      "dialCode": "+1721",
      "isoCode": "SX",
      "flag": "https://cdn.kcak11.com/CountryFlags/countries/sx.svg"
    },
    {
      "name": "سلوفاكيا",
      "dialCode": "+421",
      "isoCode": "SK",
      "flag": "https://cdn.kcak11.com/CountryFlags/countries/sk.svg"
    },
    {
      "name": "سلوفينيا",
      "dialCode": "+386",
      "isoCode": "SI",
      "flag": "https://cdn.kcak11.com/CountryFlags/countries/si.svg"
    },
    {
      "name": "جزر سليمان",
      "dialCode": "+677",
      "isoCode": "SB",
      "flag": "https://cdn.kcak11.com/CountryFlags/countries/sb.svg"
    },
    {
      "name": "الصومال",
      "dialCode": "+252",
      "isoCode": "SO",
      "flag": "https://cdn.kcak11.com/CountryFlags/countries/so.svg"
    },
    {
      "name": "جنوب إفريقيا",
      "dialCode": "+27",
      "isoCode": "ZA",
      "flag": "https://cdn.kcak11.com/CountryFlags/countries/za.svg"
    },
    {
      "name": "جورجيا الجنوبية وجزر ساندويتش الجنوبية",
      "dialCode": "+500",
      "isoCode": "GS",
      "flag": "https://cdn.kcak11.com/CountryFlags/countries/gs.svg"
    },
    {
      "name": "جنوب السودان",
      "dialCode": "+211",
      "isoCode": "SS",
      "flag": "https://cdn.kcak11.com/CountryFlags/countries/ss.svg"
    },
    {
      "name": "إسبانيا",
      "dialCode": "+34",
      "isoCode": "ES",
      "flag": "https://cdn.kcak11.com/CountryFlags/countries/es.svg"
    },
    {
      "name": "سريلانكا",
      "dialCode": "+94",
      "isoCode": "LK",
      "flag": "https://cdn.kcak11.com/CountryFlags/countries/lk.svg"
    },
    {
      "name": "السودان",
      "dialCode": "+249",
      "isoCode": "SD",
      "flag": "https://cdn.kcak11.com/CountryFlags/countries/sd.svg"
    },
    {
      "name": "سورينام",
      "dialCode": "+597",
      "isoCode": "SR",
      "flag": "https://cdn.kcak11.com/CountryFlags/countries/sr.svg"
    },
    {
      "name": "سفالبارد وجان ماين",
      "dialCode": "+47",
      "isoCode": "SJ",
      "flag": "https://cdn.kcak11.com/CountryFlags/countries/sj.svg"
    },
    {
      "name": "السويد",
      "dialCode": "+46",
      "isoCode": "SE",
      "flag": "https://cdn.kcak11.com/CountryFlags/countries/se.svg"
    },
    {
      "name": "سويسرا",
      "dialCode": "+41",
      "isoCode": "CH",
      "flag": "https://cdn.kcak11.com/CountryFlags/countries/ch.svg"
    },
    {
      "name": "الجمهورية العربية السورية",
      "dialCode": "+963",
      "isoCode": "SY",
      "flag": "https://cdn.kcak11.com/CountryFlags/countries/sy.svg"
    },
    {
      "name": "تايوان",
      "dialCode": "+886",
      "isoCode": "TW",
      "flag": "https://cdn.kcak11.com/CountryFlags/countries/tw.svg"
    },
    {
      "name": "طاجيكستان",
      "dialCode": "+992",
      "isoCode": "TJ",
      "flag": "https://cdn.kcak11.com/CountryFlags/countries/tj.svg"
    },
    {
      "name": "تنزانيا , جمهورية تنزانيا المتحدة",
      "dialCode": "+255",
      "isoCode": "TZ",
      "flag": "https://cdn.kcak11.com/CountryFlags/countries/tz.svg"
    },
    {
      "name": "تايلاند",
      "dialCode": "+66",
      "isoCode": "TH",
      "flag": "https://cdn.kcak11.com/CountryFlags/countries/th.svg"
    },
    {
      "name": "تيمور - ليشتي",
      "dialCode": "+670",
      "isoCode": "TL",
      "flag": "https://cdn.kcak11.com/CountryFlags/countries/tl.svg"
    },
    {
      "name": "توغو",
      "dialCode": "+228",
      "isoCode": "TG",
      "flag": "https://cdn.kcak11.com/CountryFlags/countries/tg.svg"
    },
    {
      "name": "توكيلاو",
      "dialCode": "+690",
      "isoCode": "TK",
      "flag": "https://cdn.kcak11.com/CountryFlags/countries/tk.svg"
    },
    {
      "name": "تونغا",
      "dialCode": "+676",
      "isoCode": "TO",
      "flag": "https://cdn.kcak11.com/CountryFlags/countries/to.svg"
    },
    {
      "name": "ترينيداد وتوباغو",
      "dialCode": "+1868",
      "isoCode": "TT",
      "flag": "https://cdn.kcak11.com/CountryFlags/countries/tt.svg"
    },
    {
      "name": "تونس",
      "dialCode": "+216",
      "isoCode": "TN",
      "flag": "https://cdn.kcak11.com/CountryFlags/countries/tn.svg"
    },
    {
      "name": "تركيا",
      "dialCode": "+90",
      "isoCode": "TR",
      "flag": "https://cdn.kcak11.com/CountryFlags/countries/tr.svg"
    },
    {
      "name": "تركمانستان",
      "dialCode": "+993",
      "isoCode": "TM",
      "flag": "https://cdn.kcak11.com/CountryFlags/countries/tm.svg"
    },
    {
      "name": "جزر تركس وكايكوس",
      "dialCode": "+1649",
      "isoCode": "TC",
      "flag": "https://cdn.kcak11.com/CountryFlags/countries/tc.svg"
    },
    {
      "name": "توفالو",
      "dialCode": "+688",
      "isoCode": "TV",
      "flag": "https://cdn.kcak11.com/CountryFlags/countries/tv.svg"
    },
    {
      "name": "أوغندا",
      "dialCode": "+256",
      "isoCode": "UG",
      "flag": "https://cdn.kcak11.com/CountryFlags/countries/ug.svg"
    },
    {
      "name": "أوكرانيا",
      "dialCode": "+380",
      "isoCode": "UA",
      "flag": "https://cdn.kcak11.com/CountryFlags/countries/ua.svg"
    },
    {
      "name": "الإمارات العربية المتحدة",
      "dialCode": "+971",
      "isoCode": "AE",
      "flag": "https://cdn.kcak11.com/CountryFlags/countries/ae.svg"
    },
    {
      "name": "المملكة المتحدة",
      "dialCode": "+44",
      "isoCode": "GB",
      "flag": "https://cdn.kcak11.com/CountryFlags/countries/gb.svg"
    },
    {
      "name": "الولايات المتحدة",
      "dialCode": "+1",
      "isoCode": "US",
      "flag": "https://cdn.kcak11.com/CountryFlags/countries/us.svg"
    },
    {
      "name": "جزر الولايات المتحدة البعيدة الصغيرة",
      "dialCode": "+246",
      "isoCode": "UMI",
      "flag": "https://cdn.kcak11.com/CountryFlags/countries/umi.svg"
    },
    {
      "name": "أوروغواي",
      "dialCode": "+598",
      "isoCode": "UY",
      "flag": "https://cdn.kcak11.com/CountryFlags/countries/uy.svg"
    },
    {
      "name": "أوزبكستان",
      "dialCode": "+998",
      "isoCode": "UZ",
      "flag": "https://cdn.kcak11.com/CountryFlags/countries/uz.svg"
    },
    {
      "name": "فانواتو",
      "dialCode": "+678",
      "isoCode": "VU",
      "flag": "https://cdn.kcak11.com/CountryFlags/countries/vu.svg"
    },
    {
      "name": "فنزويلا , جمهورية فنزويلا البوليفارية",
      "dialCode": "+58",
      "isoCode": "VE",
      "flag": "https://cdn.kcak11.com/CountryFlags/countries/ve.svg"
    },
    {
      "name": "فيتنام",
      "dialCode": "+84",
      "isoCode": "VN",
      "flag": "https://cdn.kcak11.com/CountryFlags/countries/vn.svg"
    },
    {
      "name": "جزر فيرجن البريطانية",
      "dialCode": "+1284",
      "isoCode": "VG",
      "flag": "https://cdn.kcak11.com/CountryFlags/countries/vg.svg"
    },
    {
      "name": "جزر فيرجن , الولايات المتحدة",
      "dialCode": "+1340",
      "isoCode": "VI",
      "flag": "https://cdn.kcak11.com/CountryFlags/countries/vi.svg"
    },
    {
      "name": "واليس وفوتونا",
      "dialCode": "+681",
      "isoCode": "WF",
      "flag": "https://cdn.kcak11.com/CountryFlags/countries/wf.svg"
    },
    {
      "name": "اليمن",
      "dialCode": "+967",
      "isoCode": "YE",
      "flag": "https://cdn.kcak11.com/CountryFlags/countries/ye.svg"
    },
    {
      "name": "زامبيا",
      "dialCode": "+260",
      "isoCode": "ZM",
      "flag": "https://cdn.kcak11.com/CountryFlags/countries/zm.svg"
    },
    {
      "name": "زمبابوي",
      "dialCode": "+263",
      "isoCode": "ZW",
      "flag": "https://cdn.kcak11.com/CountryFlags/countries/zw.svg"
    }
  ]